[{"OBJECT_NAME":"ALSAT-2B","OBJECT_ID":"2016-059D","EPOCH":"2026-03-09T22:53:14.170272","MEAN_MOTION":14.70730607,"ECCENTRICITY":0.00016779,"INCLINATION":98.0009,"RA_OF_ASC_NODE":133.0936,"ARG_OF_PERICENTER":116.373,"MEAN_ANOMALY":243.7649,"EPHEMERIS_TYPE":0,"CLASSIFICATION_TYPE":"U","NORAD_CAT_ID":41786,"ELEMENT_SET_NO":999,"REV_AT_EPOCH":50618,"BSTAR":0.00022227999,"MEAN_MOTION_DOT":1.307e-5,"MEAN_MOTION_DDOT":0},{"OBJECT_NAME":"NCUBE-2","OBJECT_ID":"2005-043H","EPOCH":"2026-03-09T21:58:04.865376","MEAN_MOTION":14.73594959,"ECCENTRICITY":0.00142006,"INCLINATION":98.28,"RA_OF_ASC_NODE":224.6581,"ARG_OF_PERICENTER":142.4002,"MEAN_ANOMALY":8.8891,"EPHEMERIS_TYPE":0,"CLASSIFICATION_TYPE":"U","NORAD_CAT_ID":28897,"ELEMENT_SET_NO":999,"REV_AT_EPOCH":7968,"BSTAR":0.0004424913,"MEAN_MOTION_DOT":2.833e-5,"MEAN_MOTION_DDOT":0}]
